{"spkid": "50457863", "covariance": {"epoch": "2457114.5", "labels": ["e", "q", "tp", "node", "peri", "i"], "elements": [{"sigma": 2.56567302908451e-07, "name": "e", "units": null, "title": "eccentricity", "value": ".7289710489522556", "label": "e"}, {"sigma": 3.78113470784037e-07, "name": "q", "units": "au", "value": ".3958900924622231", "title": "perihelion distance", "label": "q"}, {"label": "tp", "sigma": 0.000120323001168992, "name": "tp", "units": "TDB", "title": "time of perihelion passage", "value": "2457413.120714792989"}, {"label": "node", "value": "205.510188034817", "title": "longitude of the ascending node", "units": "deg", "name": "om", "sigma": 6.03422078652788e-05}, {"label": "peri", "name": "w", "sigma": 8.32757734765144e-05, "title": "argument of perihelion", "value": "219.782001834689", "units": "deg"}, {"label": "i", "title": "inclination", "value": "6.412192608107162", "units": "deg", "sigma": 3.31917341917999e-05, "name": "i"}], "data": [["6.58267809217167E-14", "-9.699617839226372E-14", "1.913513601443968E-11", "-3.357840949821521E-12", "3.517145289406789E-12", "-3.568167542914711E-13"], ["-9.699617839226372E-14", "1.429697967883507E-13", "-2.879489081921959E-11", "5.029520526434493E-12", "-5.55561848518632E-12", "5.84063624203981E-13"], ["1.913513601443968E-11", "-2.879489081921959E-11", "1.447762461031321E-8", "-2.202619094688864E-9", "6.586817166555667E-9", "-9.710691362236526E-10"], ["-3.357840949821521E-12", "5.029520526434493E-12", "-2.202619094688864E-9", "3.641182050056519E-9", "-4.223316395126093E-9", "-1.2419098279728E-9"], ["3.517145289406789E-12", "-5.55561848518632E-12", "6.586817166555667E-9", "-4.223316395126093E-9", "6.934854448111732E-9", "8.100838470518784E-10"], ["-3.568167542914711E-13", "5.84063624203981E-13", "-9.710691362236526E-10", "-1.2419098279728E-9", "8.100838470518784E-10", "1.1016912186591E-9"]]}, "elements": [{"value": ".7290200316104792", "title": "eccentricity", "units": null, "sigma": "2.5646E-7", "name": "e", "label": "e"}, {"label": "a", "sigma": "2.9176E-8", "name": "a", "units": "au", "title": "semi-major axis", "value": "1.460695378000135"}, {"label": "q", "name": "q", "sigma": "3.7841E-7", "value": ".3958191873571958", "title": "perihelion distance", "units": "au"}, {"label": "i", "name": "i", "sigma": "3.3128E-5", "units": "deg", "title": "inclination; angle with respect to x-y ecliptic plane", "value": "6.405004414088273"}, {"title": "longitude of the ascending node", "value": "205.3818911020291", "units": "deg", "name": "om", "sigma": "6.0589E-5", "label": "node"}, {"label": "peri", "name": "w", "sigma": "8.3535E-5", "units": "deg", "value": "219.9313866703122", "title": "argument of perihelion"}, {"units": "deg", "value": "314.6356436670492", "title": "mean anomaly", "sigma": "2.1867E-5", "name": "ma", "label": "M"}, {"label": "tp", "value": "2461281.755012566845", "title": "time of perihelion passage", "units": "TDB", "sigma": "3.9124E-5", "name": "tp"}, {"label": "period", "value": "644.8191242783423", "title": "sidereal orbital period", "units": "d", "name": "per", "sigma": "1.9319E-5"}, {"name": "n", "sigma": "1.6727E-8", "units": "deg/d", "value": ".558296096448595", "title": "mean motion", "label": "n"}, {"name": "ad", "sigma": "5.0446E-8", "units": "au", "title": "aphelion distance", "value": "2.525571568643076", "label": "Q"}], "epoch": "2461200.5"}